{
    "links": {
        "self": "http://www.neowsapp.com/rest/v1/neo/3739390?api_key=iIulBulltgU6a56xZRHN4H3l9WmuAYTsLGpBGhQ2"
    },
    "id": "3739390",
    "neo_reference_id": "3739390",
    "name": "(2016 AG65)",
    "designation": "2016 AG65",
    "nasa_jpl_url": "http://ssd.jpl.nasa.gov/sbdb.cgi?sstr=3739390",
    "absolute_magnitude_h": 23.4,
    "estimated_diameter": {
        "kilometers": {
            "estimated_diameter_min": 0.0555334912,
            "estimated_diameter_max": 0.1241766613
        },
        "meters": {
            "estimated_diameter_min": 55.5334911581,
            "estimated_diameter_max": 124.1766612574
        },
        "miles": {
            "estimated_diameter_min": 0.0345069009,
            "estimated_diameter_max": 0.0771597762
        },
        "feet": {
            "estimated_diameter_min": 182.1964991311,
            "estimated_diameter_max": 407.4037573197
        }
    },
    "is_potentially_hazardous_asteroid": false,
    "close_approach_data": [
        {
            "close_approach_date": "2016-01-24",
            "close_approach_date_full": "2016-Jan-24 11:23",
            "epoch_date_close_approach": 1453634580000,
            "relative_velocity": {
                "kilometers_per_second": "3.9344804275",
                "kilometers_per_hour": "14164.129538935",
                "miles_per_hour": "8801.0392682344"
            },
            "miss_distance": {
                "astronomical": "0.1781112131",
                "lunar": "69.2852618959",
                "kilometers": "26645058.102876097",
                "miles": "16556471.3713482586"
            },
            "orbiting_body": "Earth"
        }
    ],
    "orbital_data": {
        "orbit_id": "8",
        "orbit_determination_date": "2017-04-06 08:29:20",
        "first_observation_date": "2016-01-08",
        "last_observation_date": "2016-04-03",
        "data_arc_in_days": 86,
        "observations_used": 19,
        "orbit_uncertainty": "6",
        "minimum_orbit_intersection": ".143835",
        "jupiter_tisserand_invariant": "4.137",
        "epoch_osculation": "2459000.5",
        "eccentricity": ".3365934123216167",
        "semi_major_axis": "1.697188990652836",
        "inclination": "4.931551320623641",
        "ascending_node_longitude": "105.7391382726832",
        "orbital_period": "807.5952125076401",
        "perihelion_distance": "1.125926356934317",
        "perihelion_argument": "15.89452612264503",
        "aphelion_distance": "2.268451624371354",
        "perihelion_time": "2459019.493335091123",
        "mean_anomaly": "351.5333814181823",
        "mean_motion": ".4457678728458216",
        "equinox": "J2000",
        "orbit_class": {
            "orbit_class_type": "AMO",
            "orbit_class_description": "Near-Earth asteroid orbits similar to that of 1221 Amor",
            "orbit_class_range": "1.017 AU < q (perihelion) < 1.3 AU"
        }
    },
    "is_sentry_object": false
}